OBJECT_NAME,OBJECT_ID,EPOCH,MEAN_MOTION,ECCENTRICITY,INCLINATION,RA_OF_ASC_NODE,ARG_OF_PERICENTER,MEAN_ANOMALY,EPHEMERIS_TYPE,CLASSIFICATION_TYPE,NORAD_CAT_ID,ELEMENT_SET_NO,REV_AT_EPOCH,BSTAR,MEAN_MOTION_DOT,MEAN_MOTION_DDOT
KKS-1 (KISEKI),2009-002H,2026-03-01T10:25:56.787456,14.82790654,.0006474,98.1188,341.2046,283.5110,76.5381,0,U,33499,999,92022,.26322E-3,.2073E-4,0
NOAA 19,2009-005A,2026-03-01T10:52:32.565216,14.13454803,.0013227,98.9624,131.2098,339.1534,20.9097,0,U,33591,999,87926,.46486E-4,.42E-6,0
UK-DMC 2,2009-041C,2026-03-01T13:37:46.961760,14.75829797,.0001097,97.8631,198.2897,88.2704,271.8631,0,U,35683,999,89069,.20144E-3,.1332E-4,0
METEOR-M 1,2009-049A,2026-03-01T12:08:57.604128,14.23127542,.0001122,98.7258,23.8294,255.8638,104.2416,0,U,35865,999,85393,.74356E-4,.124E-5,0
OCEANSAT-2,2009-051A,2026-03-01T12:59:05.965728,13.99635669,.0016869,98.2268,58.1735,175.4040,184.7284,0,U,35931,999,86427,.28224E-5,-.33E-6,0
SWISSCUBE,2009-051B,2026-03-01T06:23:10.300416,14.62231629,.0006495,98.4108,326.2594,178.2176,181.9049,0,U,35932,999,87338,.3009E-3,.1467E-4,0
BEESAT-1,2009-051C,2026-03-01T06:56:20.090688,14.61509618,.0004732,98.4037,326.1398,189.6799,170.4311,0,U,35933,999,87342,.25806E-3,.1231E-4,0
ITUPSAT1,2009-051E,2026-03-01T04:27:57.737088,14.60246277,.0006684,98.4126,325.3382,205.9421,154.1444,0,U,35935,999,87297,.2431E-3,.1124E-4,0
DMSP 5D-3 F18 (USA 210),2009-057A,2026-03-01T12:12:52.548192,14.14829749,.0010682,98.8949,41.5665,191.7646,168.3279,0,U,35951,999,84436,.1794E-3,.302E-5,0
PROBA-2,2009-059B,2026-03-01T11:11:58.570368,14.54784094,.0012051,98.2425,245.3148,251.7540,108.2346,0,U,36037,999,86586,.94979E-4,.362E-5,0
YAOGAN-7,2009-069A,2026-03-01T05:44:16.204416,14.77875628,.0025393,98.0226,306.6900,30.1544,330.1121,0,U,36110,999,87368,.13183E-3,.9E-5,0
XIWANG-1 (HOPE-1),2009-072B,2026-03-01T11:26:58.213824,13.16434377,.0007999,100.3891,16.0918,117.0716,243.1214,0,U,36122,999,77883,-.3753E-3,-.188E-5,0
RADUGA-1M 2,2010-002A,2026-03-01T12:17:28.072608,0.98964355,.0008606,3.3402,80.2120,247.2731,110.7238,0,U,36358,999,4895,0,-.54E-6,0
COSMOS 2463,2010-017A,2026-03-01T05:47:43.802016,13.71657060,.0037474,82.9643,329.0365,70.2361,42.0785,0,U,36519,999,79313,.56583E-4,.67E-6,0
CARTOSAT-2B,2010-035A,2026-03-01T11:21:44.707104,14.78719654,.0011533,97.8363,111.9431,174.6989,185.4347,0,U,36795,999,84393,.89314E-5,.15E-6,0
AISSAT 1,2010-035C,2026-03-01T06:28:52.358016,14.96838261,.0010635,98.1053,315.6843,59.0251,301.2013,0,U,36797,999,84807,.27236E-3,.3061E-4,0
TISAT 1,2010-035E,2026-03-01T08:54:49.195872,15.27148089,.0000072,98.0642,357.7898,30.7764,329.3477,0,U,36799,999,85122,.98732E-3,.26267E-3,0
YAOGAN-10,2010-038A,2026-03-01T13:42:43.913376,14.84974099,.0001619,97.9089,84.8045,93.3896,61.1332,0,U,36834,999,84123,.27575E-3,.2296E-4,0
SHIJIAN-6 04B (SJ-6 04B),2010-051B,2026-03-01T13:35:47.905152,14.99093479,.000895,97.8743,64.8705,326.4858,33.5798,0,U,37180,999,83955,.17551E-3,.2071E-4,0
FENGYUN 3B,2010-059A,2026-03-01T13:00:27.740736,14.14816326,.0022889,98.9792,106.0298,130.2233,4.1068,0,U,37214,999,79220,.18004E-3,.303E-5,0
COSMO-SKYMED 4,2010-060A,2026-03-01T11:51:56.653344,14.82149847,.000141,97.8858,245.6492,84.5490,275.5884,0,U,37216,999,82861,.69077E-4,.498E-5,0
O/OREOS (USA 219),2010-062C,2026-03-01T03:45:43.938720,14.93224567,.00169194,71.9729,324.9554,271.0216,88.9016,0,U,37224,999,10051,.28754566E-3,.2953E-4,0
ELEKTRO-L 1 (GOMS 2),2011-001A,2026-03-01T10:24:10.325376,1.00175086,.0003071,9.4424,55.5865,9.9538,180.9617,0,U,37344,999,5540,0,-.281E-5,0
RESOURCESAT-2,2011-015A,2026-03-01T09:45:09.122976,14.21486748,.0006022,98.7739,128.5453,160.6419,199.4988,0,U,37387,999,77086,-.13834E-4,-.75E-6,0
YOUTHSAT,2011-015B,2026-03-01T12:01:48.557280,14.25576488,.0013461,98.3578,39.4742,301.0948,170.6980,0,U,37388,999,77229,.14076E-3,.292E-5,0
APRIZESAT 6,2011-044F,2026-03-01T08:42:14.758848,14.76730821,.0044579,98.2425,328.6428,71.4332,48.9813,0,U,37793,999,78123,.16397E-3,.1111E-4,0
JUGNU,2011-058B,2026-03-01T12:18:29.865024,14.13736268,.0018613,19.9599,242.5745,327.3699,56.1645,0,U,37839,999,74377,.11308E-3,.484E-5,0
SRMSAT,2011-058D,2026-03-01T01:44:27.289248,14.11543719,.00118979,19.9732,353.8578,94.9480,9.1184,0,U,37841,999,74252,.99837702E-4,.449E-5,0
SUOMI NPP,2011-061A,2026-03-01T11:54:58.286016,14.19540848,.0000492,98.7860,2.1647,307.8163,52.2968,0,U,37849,999,74316,.72136E-4,.108E-5,0
YAOGAN-12,2011-066B,2026-03-01T12:33:51.208704,15.25315963,.0008478,97.1302,104.1769,244.1654,115.8711,0,U,37875,999,79562,.32868E-3,.8221E-4,0
ZIYUAN 3-01 (ZY 3-01),2012-001A,2026-03-01T11:46:50.454336,15.95739994,.0001296,97.1541,134.8947,238.7545,121.3605,0,U,38046,999,78739,.95629E-3,.38229E-2,.60372E-4
